NORAD_CAT_ID,OBJECT_NAME,OBJECT_TYPE,EPOCH,MEAN_MOTION,ECCENTRICITY,INCLINATION,RA_OF_ASC_NODE,ARG_OF_PERICENTER,MEAN_ANOMALY,BSTAR,MEAN_MOTION_DOT,MEAN_MOTION_DDOT,TLE_LINE0,TLE_LINE1,TLE_LINE2,SEMIMAJOR_AXIS,PERIOD,APOGEE,PERIGEE,DECAYED
53544.0,STARLINK-4303,PAYLOAD,2024-03-09 18:56:19,15.08841071,0.0001782,53.2156,100.7711,89.1051,271.0145,-7.0638e-05,-1.412e-05,0.0,0 STARLINK-4303,1 53544U 22101T   24069.78911746 -.00001412  00000-0 -70638-4 0  9999,2 53544  53.2156 100.7711 0001782  89.1051 271.0145 15.08841071 86788,6917.877,95.437,540.975,538.509,0.0
53544.0,STARLINK-4303,PAYLOAD,2024-03-10 10:50:11,15.08843175,0.000163,53.2158,97.7963,90.5543,269.5636,0.00013917,1.928e-05,0.0,0 STARLINK-4303,1 53544U 22101T   24070.45151724  .00001928  00000-0  13917-3 0  9993,2 53544  53.2158  97.7963 0001630  90.5543 269.5636 15.08843175 86210,6917.871,95.437,540.863,538.608,0.0
53544.0,STARLINK-4303,PAYLOAD,2024-03-10 18:47:06,15.08841701,0.0001666,53.2159,96.3089,80.4438,279.6742,8.5655e-05,1.075e-05,0.0,0 STARLINK-4303,1 53544U 22101T   24070.78271803  .00001075  00000-0  85655-4 0  9992,2 53544  53.2159  96.3089 0001666  80.4438 279.6742 15.08841701 86937,6917.875,95.437,540.893,538.588,0.0
53544.0,STARLINK-4303,PAYLOAD,2024-03-11 09:05:35,15.08833242,0.0001668,53.2161,93.6347,84.3014,275.8169,0.00014658,2.045e-05,0.0,0 STARLINK-4303,1 53544U 22101T   24071.37888281  .00002045  00000-0  14658-3 0  9994,2 53544  53.2161  93.6347 0001668  84.3014 275.8169 15.08833242 86350,6917.901,95.438,540.92,538.612,0.0
53544.0,STARLINK-4303,PAYLOAD,2024-03-11 18:37:53,15.08844931,0.0001619,53.2171,91.8509,83.401,276.7166,2.4772e-05,1.06e-06,0.0,0 STARLINK-4303,1 53544U 22101T   24071.77631928  .00000106  00000-0  24772-4 0  9997,2 53544  53.2171  91.8509 0001619  83.4010 276.7166 15.08844931 86414,6917.865,95.437,540.85,538.61,0.0
53544.0,STARLINK-4303,PAYLOAD,2024-03-12 10:31:45,15.08845306,0.0001667,53.2173,88.8773,89.1804,270.9379,9.9096e-05,1.29e-05,0.0,0 STARLINK-4303,1 53544U 22101T   24072.43871767  .00001290  00000-0  99096-4 0  9994,2 53544  53.2173  88.8773 0001667  89.1804 270.9379 15.08845306 87186,6917.864,95.437,540.882,538.576,0.0
53544.0,STARLINK-4303,PAYLOAD,2024-03-13 10:22:32,15.08843623,0.0001424,53.2157,84.4127,98.3437,261.7717,8.1656e-05,1.012e-05,0.0,0 STARLINK-4303,1 53544U 22101T   24073.43231700  .00001012  00000-0  81656-4 0  9997,2 53544  53.2157  84.4127 0001424  98.3437 261.7717 15.08843623 86664,6917.869,95.437,540.719,538.749,0.0
53544.0,STARLINK-4303,PAYLOAD,2024-03-13 18:19:27,15.08843083,0.0001638,53.2176,82.9249,92.9501,267.1678,7.1028e-05,8.43e-06,0.0,0 STARLINK-4303,1 53544U 22101T   24073.76351829  .00000843  00000-0  71028-4 0  9991,2 53544  53.2176  82.9249 0001638  92.9501 267.1678 15.08843083 87388,6917.871,95.437,540.869,538.603,0.0
53544.0,STARLINK-4303,PAYLOAD,2024-03-14 07:02:33,15.08843724,0.0001646,53.2176,80.5487,97.3044,262.8135,8.7947e-05,1.112e-05,0.0,0 STARLINK-4303,1 53544U 22101T   24074.29343809  .00001112  00000-0  87947-4 0  9996,2 53544  53.2176  80.5487 0001646  97.3044 262.8135 15.08843724 87467,6917.869,95.437,540.873,538.595,0.0
53544.0,STARLINK-4303,PAYLOAD,2024-03-15 03:42:34,15.08836356,0.0001492,53.2165,76.6803,101.6436,258.4724,1.8225e-05,2e-08,0.0,0 STARLINK-4303,1 53544U 22101T   24075.15456543  .00000002  00000-0  18225-4 0  9992,2 53544  53.2165  76.6803 0001492 101.6436 258.4724 15.08836356 86924,6917.892,95.438,540.789,538.724,0.0
53544.0,STARLINK-4303,PAYLOAD,2024-03-15 06:53:21,15.0880137,0.0001388,53.2171,76.0887,109.3937,250.7205,0.00047323,7.244e-05,0.0,0 STARLINK-4303,1 53544U 22101T   24075.28705378  .00007244  00000-0  47323-3 0  9994,2 53544  53.2171  76.0887 0001388 109.3937 250.7205 15.08801370 86941,6917.998,95.44,540.824,538.903,0.0
53544.0,STARLINK-4303,PAYLOAD,2024-03-15 22:47:12,15.08834404,0.0001496,53.217,73.1113,110.7904,249.3248,5.4403e-05,5.78e-06,0.0,0 STARLINK-4303,1 53544U 22101T   24075.94944794  .00000578  00000-0  54403-4 0  9995,2 53544  53.2170  73.1113 0001496 110.7904 249.3248 15.08834404 87711,6917.897,95.438,540.797,538.728,0.0
53544.0,STARLINK-4303,PAYLOAD,2024-03-16 05:08:44,15.08843813,0.000157,53.2174,71.9254,100.7861,259.3308,0.0001012,1.323e-05,0.0,0 STARLINK-4303,1 53544U 22101T   24076.21440162  .00001323  00000-0  10120-3 0  9992,2 53544  53.2174  71.9254 0001570 100.7861 259.3308 15.08843813 87083,6917.869,95.437,540.82,538.648,0.0
53544.0,STARLINK-4303,PAYLOAD,2024-03-16 06:44:07,15.08843809,0.0001559,53.2175,71.6291,101.5918,258.5249,0.00010542,1.39e-05,0.0,0 STARLINK-4303,1 53544U 22101T   24076.28064135  .00001390  00000-0  10542-3 0  9993,2 53544  53.2175  71.6291 0001559 101.5918 258.5249 15.08843809 87766,6917.869,95.437,540.812,538.655,0.0
53544.0,STARLINK-4303,PAYLOAD,2024-03-17 04:59:32,15.08828042,0.0001728,53.2185,67.4634,111.9614,248.1562,4.1211e-05,3.68e-06,0.0,0 STARLINK-4303,1 53544U 22101T   24077.20801741  .00000368  00000-0  41211-4 0  9990,2 53544  53.2185  67.4634 0001728 111.9614 248.1562 15.08828042 87234,6917.917,95.438,540.977,538.587,0.0
53544.0,STARLINK-4303,PAYLOAD,2024-03-18 04:50:19,15.08847246,0.000171,53.219,63.0043,106.5207,253.5973,6.9213e-05,8.14e-06,0.0,0 STARLINK-4303,1 53544U 22101T   24078.20160880  .00000814  00000-0  69213-4 0  9991,2 53544  53.2190  63.0043 0001710 106.5207 253.5973 15.08847246 87384,6917.858,95.437,540.906,538.54,0.0
53544.0,STARLINK-4303,PAYLOAD,2024-03-18 06:25:42,15.08847762,0.0001946,53.2184,62.7058,107.8882,252.2322,8.1839e-05,1.015e-05,0.0,0 STARLINK-4303,1 53544U 22101T   24078.26784835  .00001015  00000-0  81839-4 0  9991,2 53544  53.2184  62.7058 0001946 107.8882 252.2322 15.08847762 88066,6917.857,95.437,541.068,538.375,0.0
53544.0,STARLINK-4303,PAYLOAD,2024-03-19 07:51:51,15.08862812,0.0001973,53.2184,57.9476,112.5232,247.5969,9.7922e-05,1.272e-05,0.0,0 STARLINK-4303,1 53544U 22101T   24079.32767774  .00001272  00000-0  97922-4 0  9997,2 53544  53.2184  57.9476 0001973 112.5232 247.5969 15.08862812 87558,6917.811,95.436,541.041,538.311,0.0
53544.0,STARLINK-4303,PAYLOAD,2024-03-20 04:31:52,15.08849624,0.0001628,53.2175,54.0781,92.1636,267.9543,9.4724e-05,1.22e-05,0.0,0 STARLINK-4303,1 53544U 22101T   24080.18880412  .00001220  00000-0  94724-4 0  9998,2 53544  53.2175  54.0781 0001628  92.1636 267.9543 15.08849624 87687,6917.851,95.437,540.842,538.59,0.0
53544.0,STARLINK-4303,PAYLOAD,2024-03-21 04:22:39,15.08844056,0.0001535,53.2173,49.6234,100.9283,259.1881,4.0623e-09,-2.88e-06,0.0,0 STARLINK-4303,1 53544U 22101T   24081.18240612 -.00000288  00000-0  40623-8 0  9998,2 53544  53.2173  49.6234 0001535 100.9283 259.1881 15.08844056 87830,6917.868,95.437,540.795,538.671,0.0
53544.0,STARLINK-4303,PAYLOAD,2024-03-21 21:51:54,15.08841346,0.0001638,53.2163,46.3508,108.7234,251.3936,0.00017022,2.422e-05,0.0,0 STARLINK-4303,1 53544U 22101T   24081.91104761  .00002422  00000-0  17022-3 0  9996,2 53544  53.2163  46.3508 0001638 108.7234 251.3936 15.08841346 88614,6917.876,95.437,540.874,538.608,0.0
53544.0,STARLINK-4303,PAYLOAD,2024-03-22 04:13:26,15.08856849,0.0001701,53.2181,45.1678,102.4033,257.715,0.00027022,4.017e-05,0.0,0 STARLINK-4303,1 53544U 22101T   24082.17599958  .00004017  00000-0  27022-3 0  9994,2 53544  53.2181  45.1678 0001701 102.4033 257.7150 15.08856849 87989,6917.829,95.436,540.871,538.517,0.0
53544.0,STARLINK-4303,PAYLOAD,2024-03-22 07:24:12,15.08863309,0.0001558,53.2165,44.5664,96.9267,263.1903,0.00051329,7.896e-05,0.0,0 STARLINK-4303,1 53544U 22101T   24082.30847769  .00007896  00000-0  51329-3 0  9990,2 53544  53.2165  44.5664 0001558  96.9267 263.1903 15.08863309 88678,6917.809,95.436,540.752,538.596,0.0
53544.0,STARLINK-4303,PAYLOAD,2024-03-22 21:42:41,15.08830813,0.0001338,53.2165,41.8958,79.2471,280.8671,-0.00011209,-2.071e-05,0.0,0 STARLINK-4303,1 53544U 22101T   24082.90465166 -.00002071  00000-0 -11209-3 0  9998,2 53544  53.2165  41.8958 0001338  79.2471 280.8671 15.08830813 88763,6917.908,95.438,540.699,538.848,0.0
53544.0,STARLINK-4303,PAYLOAD,2024-03-23 04:04:14,15.08837835,0.0001455,53.2179,40.7039,95.8058,264.31,9.8167e-05,1.275e-05,0.0,0 STARLINK-4303,1 53544U 22101T   24083.16961015  .00001275  00000-0  98167-4 0  9993,2 53544  53.2179  40.7039 0001455  95.8058 264.3100 15.08837835 88137,6917.887,95.438,540.759,538.745,0.0
53544.0,STARLINK-4303,PAYLOAD,2024-03-23 07:15:00,15.0883917,0.000128,53.2172,40.1064,98.3396,261.7741,0.00044687,6.831e-05,0.0,0 STARLINK-4303,1 53544U 22101T   24083.30208980  .00006831  00000-0  44687-3 0  9994,2 53544  53.2172  40.1064 0001280  98.3396 261.7741 15.08839170 88823,6917.883,95.438,540.633,538.862,0.0
53544.0,STARLINK-4303,PAYLOAD,2024-03-24 02:19:38,15.0885655,0.0001461,53.2176,36.5372,98.1439,261.9718,0.00087508,0.00013673,0.0,0 STARLINK-4303,1 53544U 22101T   24084.09696799  .00013673  00000-0  87508-3 0  9991,2 53544  53.2176  36.5372 0001461  98.1439 261.9718 15.08856550 88271,6917.83,95.437,540.705,538.684,0.0
53544.0,STARLINK-4303,PAYLOAD,2024-03-24 19:48:52,15.08853675,0.0001797,53.2177,33.2667,120.9847,239.1322,0.001122,0.0001762,0.0,0 STARLINK-4303,1 53544U 22101T   24084.82561273  .00017620  00000-0  11220-2 0  9993,2 53544  53.2177  33.2667 0001797 120.9847 239.1322 15.08853675 88387,6917.839,95.437,540.947,538.46,0.0
53544.0,STARLINK-4303,PAYLOAD,2024-03-25 05:21:12,15.08836983,0.0001381,53.2171,31.4825,97.3129,262.802,0.00025639,3.795e-05,0.0,0 STARLINK-4303,1 53544U 22101T   24085.22305780  .00003795  00000-0  25639-3 0  9995,2 53544  53.2171  31.4825 0001381  97.3129 262.8020 15.08836983 88444,6917.89,95.438,540.71,538.799,0.0
53544.0,STARLINK-4303,PAYLOAD,2024-03-25 13:18:08,15.08831294,0.0001729,53.2187,29.9957,87.4556,272.6634,0.00021638,3.157e-05,0.0,0 STARLINK-4303,1 53544U 22101T   24085.55426244  .00003157  00000-0  21638-3 0  9997,2 53544  53.2187  29.9957 0001729  87.4556 272.6634 15.08831294 88494,6917.907,95.438,540.968,538.576,0.0
